{
  "links" : {
    "next" : "https://api.nasa.gov/neo/rest/v1/feed?start_date=2012-01-16&end_date=2012-01-16&detailed=true&api_key=t0TVs3DtDT2H8Oy2Zy8m2eVrNsAVKAexjcZXUckd",
    "prev" : "https://api.nasa.gov/neo/rest/v1/feed?start_date=2012-01-14&end_date=2012-01-14&detailed=true&api_key=t0TVs3DtDT2H8Oy2Zy8m2eVrNsAVKAexjcZXUckd",
    "self" : "https://api.nasa.gov/neo/rest/v1/feed?start_date=2012-01-15&end_date=2012-01-15&detailed=true&api_key=t0TVs3DtDT2H8Oy2Zy8m2eVrNsAVKAexjcZXUckd"
  },
  "element_count" : 15,
  "near_earth_objects" : {
    "2012-01-15" : [ {
      "links" : {
        "self" : "https://api.nasa.gov/neo/rest/v1/neo/3596043?api_key=t0TVs3DtDT2H8Oy2Zy8m2eVrNsAVKAexjcZXUckd"
      },
      "neo_reference_id" : "3596043",
      "name" : "(2012 BK14)",
      "nasa_jpl_url" : "http://ssd.jpl.nasa.gov/sbdb.cgi?sstr=3596043",
      "absolute_magnitude_h" : 27.4,
      "estimated_diameter" : {
        "kilometers" : {
          "estimated_diameter_min" : 0.0088014652,
          "estimated_diameter_max" : 0.0196806745
        },
        "meters" : {
          "estimated_diameter_min" : 8.801465209,
          "estimated_diameter_max" : 19.6806745089
        },
        "miles" : {
          "estimated_diameter_min" : 0.0054689752,
          "estimated_diameter_max" : 0.0122290004
        },
        "feet" : {
          "estimated_diameter_min" : 28.8761991163,
          "estimated_diameter_max" : 64.5691441559
        }
      },
      "is_potentially_hazardous_asteroid" : false,
      "close_approach_data" : [ {
        "close_approach_date" : "2012-01-15",
        "epoch_date_close_approach" : 1326614400000,
        "relative_velocity" : {
          "kilometers_per_second" : "5.2064448081",
          "kilometers_per_hour" : "18743.2013090227",
          "miles_per_hour" : "11646.2963911536"
        },
        "miss_distance" : {
          "astronomical" : "0.010936277",
          "lunar" : "4.2542119026",
          "kilometers" : "1636043.75",
          "miles" : "1016590.4375"
        },
        "orbiting_body" : "Earth"
      } ],
      "orbital_data" : {
        "orbit_id" : "4",
        "orbit_determination_date" : "2017-04-06 08:51:18",
        "orbit_uncertainty" : "9",
        "minimum_orbit_intersection" : ".00189732",
        "jupiter_tisserand_invariant" : "6.170",
        "epoch_osculation" : "2455947.5",
        "eccentricity" : ".183756093720193",
        "semi_major_axis" : ".9783988791843621",
        "inclination" : "1.464600152257667",
        "ascending_node_longitude" : "118.7478215940977",
        "orbital_period" : "353.4861047005591",
        "perihelion_distance" : ".7986121230452287",
        "perihelion_argument" : "253.3565047730388",
        "aphelion_distance" : "1.158185635323495",
        "perihelion_time" : "2455861.466285778053",
        "mean_anomaly" : "87.61910781793716",
        "mean_motion" : "1.018427585166209",
        "equinox" : "J2000"
      }
    }, {
      "links" : {
        "self" : "https://api.nasa.gov/neo/rest/v1/neo/2066407?api_key=t0TVs3DtDT2H8Oy2Zy8m2eVrNsAVKAexjcZXUckd"
      },
      "neo_reference_id" : "2066407",
      "name" : "66407 (1999 LQ28)",
      "nasa_jpl_url" : "http://ssd.jpl.nasa.gov/sbdb.cgi?sstr=2066407",
      "absolute_magnitude_h" : 18.9,
      "estimated_diameter" : {
        "kilometers" : {
          "estimated_diameter_min" : 0.4411182,
          "estimated_diameter_max" : 0.9863702813
        },
        "meters" : {
          "estimated_diameter_min" : 441.1181999969,
          "estimated_diameter_max" : 986.3702813054
        },
        "miles" : {
          "estimated_diameter_min" : 0.2740980571,
          "estimated_diameter_max" : 0.6129018881
        },
        "feet" : {
          "estimated_diameter_min" : 1447.2382352778,
          "estimated_diameter_max" : 3236.1230737181
        }
      },
      "is_potentially_hazardous_asteroid" : false,
      "close_approach_data" : [ {
        "close_approach_date" : "2012-01-15",
        "epoch_date_close_approach" : 1326614400000,
        "relative_velocity" : {
          "kilometers_per_second" : "12.7901825936",
          "kilometers_per_hour" : "46044.6573371375",
          "miles_per_hour" : "28610.3594437341"
        },
        "miss_distance" : {
          "astronomical" : "0.4885765331",
          "lunar" : "190.0562744141",
          "kilometers" : "73090008",
          "miles" : "45416028"
        },
        "orbiting_body" : "Earth"
      } ],
      "orbital_data" : {
        "orbit_id" : "69",
        "orbit_determination_date" : "2017-04-06 09:28:51",
        "orbit_uncertainty" : "0",
        "minimum_orbit_intersection" : ".0968708",
        "jupiter_tisserand_invariant" : "5.227",
        "epoch_osculation" : "2458000.5",
        "eccentricity" : ".1200291030128938",
        "semi_major_axis" : "1.198434896390854",
        "inclination" : "21.770673569828",
        "ascending_node_longitude" : "95.00521946715862",
        "orbital_period" : "479.2036270792709",
        "perihelion_distance" : "1.05458783075771",
        "perihelion_argument" : "320.5240791591887",
        "aphelion_distance" : "1.342281962023999",
        "perihelion_time" : "2457768.287330171069",
        "mean_anomaly" : "174.4489323837826",
        "mean_motion" : ".7512464006046599",
        "equinox" : "J2000"
      }
    }, {
      "links" : {
        "self" : "https://api.nasa.gov/neo/rest/v1/neo/3008362?api_key=t0TVs3DtDT2H8Oy2Zy8m2eVrNsAVKAexjcZXUckd"
      },
      "neo_reference_id" : "3008362",
      "name" : "(1996 AE2)",
      "nasa_jpl_url" : "http://ssd.jpl.nasa.gov/sbdb.cgi?sstr=3008362",
      "absolute_magnitude_h" : 20.3,
      "estimated_diameter" : {
        "kilometers" : {
          "estimated_diameter_min" : 0.2315021222,
          "estimated_diameter_max" : 0.5176544822
        },
        "meters" : {
          "estimated_diameter_min" : 231.5021222103,
          "estimated_diameter_max" : 517.6544821978
        },
        "miles" : {
          "estimated_diameter_min" : 0.1438487052,
          "estimated_diameter_max" : 0.3216554833
        },
        "feet" : {
          "estimated_diameter_min" : 759.5214226325,
          "estimated_diameter_max" : 1698.3415313737
        }
      },
      "is_potentially_hazardous_asteroid" : false,
      "close_approach_data" : [ {
        "close_approach_date" : "2012-01-15",
        "epoch_date_close_approach" : 1326614400000,
        "relative_velocity" : {
          "kilometers_per_second" : "19.6614023476",
          "kilometers_per_hour" : "70781.0484514777",
          "miles_per_hour" : "43980.5909114196"
        },
        "miss_distance" : {
          "astronomical" : "0.1451987142",
          "lunar" : "56.4822998047",
          "kilometers" : "21721420",
          "miles" : "13497064"
        },
        "orbiting_body" : "Earth"
      } ],
      "orbital_data" : {
        "orbit_id" : "30",
        "orbit_determination_date" : "2017-04-06 09:18:06",
        "orbit_uncertainty" : "0",
        "minimum_orbit_intersection" : ".122189",
        "jupiter_tisserand_invariant" : "4.593",
        "epoch_osculation" : "2458000.5",
        "eccentricity" : ".2568069943428223",
        "semi_major_axis" : "1.367546504692949",
        "inclination" : "37.36069360524818",
        "ascending_node_longitude" : "118.9617953672091",
        "orbital_period" : "584.1327857113762",
        "perihelion_distance" : "1.016350997198721",
        "perihelion_argument" : "305.8884068834909",
        "aphelion_distance" : "1.718742012187178",
        "perihelion_time" : "2458225.753561660821",
        "mean_anomaly" : "221.1766293872037",
        "mean_motion" : ".6162982267149756",
        "equinox" : "J2000"
      }
    } ]
  }
}